STARLINK-36829          
1 67957U 26037AB  26062.58336806 -.01298095  52931-3 -24123-2 0  9990
2 67957  43.0006 236.2783 0001733 262.9162 358.5487 16.00206579  2213
STARLINK-36799          
1 67958U 26037AC  26062.58336806 -.01297319  53096-3 -23573-2 0  9990
2 67958  43.0003 236.2647 0001811 267.6030 359.2839 16.00596059  2217
STARLINK-36834          
1 67959U 26037AD  26062.58336806 -.01291510  52814-3 -23107-2 0  9998
2 67959  43.0004 236.2549 0001699 261.9604   8.6563 16.00862766  2218
STARLINK-36841          
1 67960U 26037AE  26062.58336806 -.01289906  52612-3 -23270-2 0  9993
2 67960  43.0002 236.2598 0001654 261.8497   6.7904 16.00719353  2213
STARLINK-36912          
1 67961U 26038A   26062.58336806 -.00961523  32581-3 -13633-2 0  9991
2 67961  97.2786  72.3521 0000915  98.5358 129.0605 16.05684285  2216
STARLINK-36881          
1 67962U 26038B   26062.58336806 -.00962400  32666-3 -13583-2 0  9995
2 67962  97.2785  72.3525 0001016  79.1203 149.7469 16.05758905  2215
STARLINK-36357          
1 67963U 26038C   26062.58336806 -.00964718  32899-3 -13435-2 0  9994
2 67963  97.2783  72.3541 0000961  96.5876 135.4917 16.05978027  2218
STARLINK-36349          
1 67964U 26038D   26062.58336806 -.00961767  32676-3 -13470-2 0  9998
2 67964  97.2782  72.3531 0000973  92.0409 138.4401 16.05885238  2215
STARLINK-36806          
1 67965U 26038E   26062.58336806 -.00955941  32396-3 -13214-2 0  9991
2 67965  97.2780  72.3548 0001055  79.7714 154.1540 16.06098620  2216
STARLINK-36820          
1 67966U 26038F   26062.58336806 -.00959198  32644-3 -13171-2 0  9998
2 67966  97.2780  72.3555 0000966 104.8013 130.6831 16.06207771  2218
STARLINK-36819          
1 67967U 26038G   26062.58336806 -.00963891  32989-3 -13141-2 0  9993
2 67967  97.2780  72.3561 0001081  74.5892 162.5619 16.06325312  2213
STARLINK-36812          
1 67968U 26038H   26062.58336806 -.00964643  33075-3 -13074-2 0  9992
2 67968  97.2778  72.3565 0001063  74.3038 164.3129 16.06421246  2214
